OBJECT_NAME,OBJECT_ID,EPOCH,MEAN_MOTION,ECCENTRICITY,INCLINATION,RA_OF_ASC_NODE,ARG_OF_PERICENTER,MEAN_ANOMALY,EPHEMERIS_TYPE,CLASSIFICATION_TYPE,NORAD_CAT_ID,ELEMENT_SET_NO,REV_AT_EPOCH,BSTAR,MEAN_MOTION_DOT,MEAN_MOTION_DDOT
LUDI TANCE-4 01A,2023-120A,2026-07-16T00:03:34.436160,1.00275633,.0001454,15.0858,193.2533,16.5301,174.4684,0,U,57624,999,1083,0,-.188E-5,0
TJS-10,2023-169A,2026-07-15T18:56:28.818816,1.00273627,.000408,2.6161,80.1472,115.1904,114.7974,0,U,58204,999,982,0,-.261E-5,0
ZHONGXING-6E,2023-172A,2026-07-14T16:55:11.377920,1.00272476,.0002698,0.0192,86.2131,23.7417,191.9164,0,U,58253,999,993,0,-.37E-5,0
YAOGAN-41,2023-197A,2026-07-16T05:21:00.338112,1.00265197,.0014274,3.0767,313.6043,198.4257,345.3609,0,U,58582,999,961,0,-.37E-5,0
OVZON-3,2024-003A,2026-07-14T20:54:52.408224,1.00270475,.00003681,0.0136,108.2863,217.1758,340.6622,0,U,58698,999,772,0,.43E-6,0
INSAT-3DS,2024-033A,2026-07-16T03:46:38.667936,1.00270833,.0001089,0.0884,264.5566,224.0381,304.1257,0,U,58990,999,4735,0,-.166E-5,0
MERAH PUTIH 2,2024-035A,2026-07-14T08:16:38.659296,1.00270544,.00010623,0.0215,82.0854,34.4456,52.7926,0,U,58995,999,886,0,-.365E-5,0
TJS-11,2024-037A,2026-07-16T03:36:15.692832,1.00273247,.0001838,4.1617,327.4460,150.5911,342.5812,0,U,59020,999,887,0,-.371E-5,0
HULIANWAN GAOGUI-01 (HG-01),2024-040A,2026-07-15T13:31:44.264928,1.00274292,.0001725,0.0734,333.3745,62.7563,133.8265,0,U,59069,999,761,0,.146E-5,0
EUTELSAT 36D,2024-059A,2026-07-15T22:05:41.657856,1.00271634,.000048,0.0038,131.9941,63.3891,105.6708,0,U,59346,999,843,0,.145E-5,0
PAKSAT-MM1,2024-104A,2026-07-13T13:38:44.797056,1.00269751,.0001963,0.0311,143.3666,313.2921,77.6097,0,U,59915,999,779,0,.15E-5,0
ASTRA 1P (SES-24),2024-115A,2026-07-13T08:25:18.669792,1.00281209,.00014971,0.0666,329.5187,236.9138,230.3347,0,U,60086,999,746,0,.118E-5,0
GOES 19,2024-119A,2026-07-16T02:41:57.552288,1.00271375,.0000377,0.0188,138.2561,64.7806,56.2032,0,U,60133,999,725,0,-.259E-5,0
ZHONGXING-3A,2024-122A,2026-07-15T18:59:06.067680,1.00270068,.0001717,0.0284,118.0048,49.1090,152.8803,0,U,60179,999,759,0,-.324E-5,0
TURKSAT 6A,2024-127A,2026-07-16T03:15:19.099008,1.00270053,.0002953,0.0177,198.9054,329.3488,216.5221,0,U,60233,999,730,0,0,0
HULIANWAN GAOGUI-02 (HG-02),2024-135A,2026-07-15T22:39:08.453376,1.00271040,.0006209,0.0466,358.0233,10.5217,58.0470,0,U,60327,999,778,0,-.185E-5,0
ZHONGXING-4A,2024-151A,2026-07-15T12:43:07.967712,1.00267142,.0000406,1.2426,270.4906,296.2264,35.6107,0,U,60606,999,703,0,-.372E-5,0
HULIANWAN GAOGUI-03 (HG-03),2024-181A,2026-07-15T19:50:46.115232,1.00270412,.00010471,0.0510,359.2926,93.7712,61.1711,0,U,61503,999,711,0,-.251E-5,0
DSN-3 (KIRAMEKI-3),2024-198A,2026-07-16T03:44:31.301376,1.00271599,.0000857,0.0184,52.3745,86.2704,355.5398,0,U,61733,999,621,0,-.261E-5,0
KOREASAT 6A,2024-206A,2026-07-16T01:41:38.709024,1.00269677,.0000742,0.0156,100.3326,353.5234,341.4645,0,U,61910,999,612,0,-.372E-5,0
OPTUS-X (ADS-01),2024-212A,2026-07-15T04:50:38.802336,1.00270006,.00023861,0.0135,63.8448,90.1044,8.1442,0,U,62006,999,604,0,-.153E-5,0
GSAT-N2 (GSAT-20),2024-214A,2026-07-16T03:22:48.383328,1.00271262,.0002643,0.0716,261.9817,144.5032,6.1202,0,U,62028,999,618,0,-.3E-6,0
SXM-9,2024-234A,2026-07-16T02:39:05.326848,1.00269416,.0004882,0.0158,346.8891,330.6688,290.9832,0,U,62259,999,586,0,-.215E-5,0
TJS-12,2024-246A,2026-07-16T05:28:38.505216,1.00268773,.0001813,0.6092,302.2379,97.6676,122.8308,0,U,62374,999,585,0,-.242E-5,0
NUVIEW ALPHA,2024-252B,2026-07-15T06:07:51.084768,1.00270943,.0000983,0.0436,27.4031,54.2618,220.2947,0,U,62455,999,410,0,-.225E-5,0
AGILA,2024-252C,2026-07-15T14:34:38.602272,1.00270462,.0001181,0.0493,128.1618,351.5480,184.5583,0,U,62456,999,544,0,-.192E-5,0
NUVIEW BRAVO,2024-252D,2026-07-15T06:07:51.084768,1.00270612,.00015028,0.0698,162.7343,343.8112,155.4099,0,U,62457,999,407,0,-.224E-5,0
THURAYA-4,2025-001A,2026-07-16T03:16:04.027008,1.00272942,.0000165,0.0224,73.1531,219.7034,94.4396,0,U,62483,999,446,0,.129E-5,0
SHIJIAN-25 (SJ-25),2025-002A,2026-07-15T19:02:20.514336,1.00263213,.0052117,5.1794,60.9819,175.4963,109.8555,0,U,62485,999,564,0,-.364E-5,0
TJS-14,2025-017A,2026-07-16T04:51:18.186048,1.00267466,.0002042,0.7186,297.8240,308.8682,138.5806,0,U,62804,999,556,0,.105E-5,0
SPAINSAT NG I,2025-021A,2026-07-16T03:11:41.947296,1.00270495,.0000101,0.0189,34.6457,248.1628,88.0602,0,U,62852,999,427,0,.141E-5,0
QZS-6 (MICHIBIKI-6),2025-023A,2026-07-15T18:55:58.867392,1.00266863,.00018396,0.0103,12.6020,119.3403,176.0977,0,U,62876,999,523,0,-.242E-5,0
